[{"OBJECT_NAME":"ONEWEB-0680","OBJECT_ID":"2023-068G","EPOCH":"2025-10-19T07:21:25.620192","MEAN_MOTION":13.21881587,"ECCENTRICITY":0.00022953,"INCLINATION":87.9167,"RA_OF_ASC_NODE":292.0211,"ARG_OF_PERICENTER":76.6232,"MEAN_ANOMALY":283.5157,"EPHEMERIS_TYPE":0,"CLASSIFICATION_TYPE":"U","NORAD_CAT_ID":56716,"ELEMENT_SET_NO":999,"REV_AT_EPOCH":11927,"BSTAR":-2.0798902e-5,"MEAN_MOTION_DOT":4.0e-8,"MEAN_MOTION_DDOT":0},{"OBJECT_NAME":"ONEWEB-0681","OBJECT_ID":"2023-068H","EPOCH":"2025-10-19T06:51:18.495936","MEAN_MOTION":13.21744858,"ECCENTRICITY":9.196e-5,"INCLINATION":87.9166,"RA_OF_ASC_NODE":292.0434,"ARG_OF_PERICENTER":67.3545,"MEAN_ANOMALY":292.7686,"EPHEMERIS_TYPE":0,"CLASSIFICATION_TYPE":"U","NORAD_CAT_ID":56717,"ELEMENT_SET_NO":999,"REV_AT_EPOCH":11926,"BSTAR":0.00014658446,"MEAN_MOTION_DOT":7.3e-7,"MEAN_MOTION_DDOT":0},{"OBJECT_NAME":"ONEWEB-0682","OBJECT_ID":"2023-068J","EPOCH":"2025-10-19T07:30:06.749568","MEAN_MOTION":13.15546807,"ECCENTRICITY":0.0002086,"INCLINATION":87.8966,"RA_OF_ASC_NODE":307.2713,"ARG_OF_PERICENTER":79.8486,"MEAN_ANOMALY":280.2879,"EPHEMERIS_TYPE":0,"CLASSIFICATION_TYPE":"U","NORAD_CAT_ID":56718,"ELEMENT_SET_NO":999,"REV_AT_EPOCH":11778,"BSTAR":-0.00026907604,"MEAN_MOTION_DOT":-8.8e-7,"MEAN_MOTION_DDOT":0},{"OBJECT_NAME":"ONEWEB-0683","OBJECT_ID":"2023-068K","EPOCH":"2025-10-19T08:00:55.878048","MEAN_MOTION":13.15547234,"ECCENTRICITY":0.00020128,"INCLINATION":87.897,"RA_OF_ASC_NODE":307.2471,"ARG_OF_PERICENTER":86.6823,"MEAN_ANOMALY":273.4538,"EPHEMERIS_TYPE":0,"CLASSIFICATION_TYPE":"U","NORAD_CAT_ID":56719,"ELEMENT_SET_NO":999,"REV_AT_EPOCH":11775,"BSTAR":0.00041534102,"MEAN_MOTION_DOT":1.69e-6,"MEAN_MOTION_DDOT":0},{"OBJECT_NAME":"ONEWEB-0684","OBJECT_ID":"2023-068L","EPOCH":"2025-10-19T02:43:46.106112","MEAN_MOTION":13.15548522,"ECCENTRICITY":0.00026684,"INCLINATION":87.8965,"RA_OF_ASC_NODE":307.2867,"ARG_OF_PERICENTER":123.383,"MEAN_ANOMALY":236.7556,"EPHEMERIS_TYPE":0,"CLASSIFICATION_TYPE":"U","NORAD_CAT_ID":56720,"ELEMENT_SET_NO":999,"REV_AT_EPOCH":11755,"BSTAR":0.00058648091,"MEAN_MOTION_DOT":2.34e-6,"MEAN_MOTION_DDOT":0},{"OBJECT_NAME":"ONEWEB-0686","OBJECT_ID":"2023-068M","EPOCH":"2025-10-19T06:10:32.085120","MEAN_MOTION":13.165952,"ECCENTRICITY":0.00022115,"INCLINATION":87.897,"RA_OF_ASC_NODE":276.7947,"ARG_OF_PERICENTER":86.9807,"MEAN_ANOMALY":273.1577,"EPHEMERIS_TYPE":0,"CLASSIFICATION_TYPE":"U","NORAD_CAT_ID":56721,"ELEMENT_SET_NO":999,"REV_AT_EPOCH":12001,"BSTAR":0.00051973945,"MEAN_MOTION_DOT":2.12e-6,"MEAN_MOTION_DDOT":0},{"OBJECT_NAME":"ONEWEB-0694","OBJECT_ID":"2023-068N","EPOCH":"2025-10-19T07:12:05.679072","MEAN_MOTION":13.1659899,"ECCENTRICITY":0.00021975,"INCLINATION":87.8989,"RA_OF_ASC_NODE":276.7223,"ARG_OF_PERICENTER":77.2278,"MEAN_ANOMALY":282.9099,"EPHEMERIS_TYPE":0,"CLASSIFICATION_TYPE":"U","NORAD_CAT_ID":56722,"ELEMENT_SET_NO":999,"REV_AT_EPOCH":12007,"BSTAR":-1.0660533e-5,"MEAN_MOTION_DOT":9.0e-8,"MEAN_MOTION_DDOT":0},{"OBJECT_NAME":"ONEWEB-0696","OBJECT_ID":"2023-068P","EPOCH":"2025-10-19T07:10:43.109184","MEAN_MOTION":13.15548682,"ECCENTRICITY":0.00017878,"INCLINATION":87.8969,"RA_OF_ASC_NODE":307.3056,"ARG_OF_PERICENTER":102.5856,"MEAN_ANOMALY":257.5475,"EPHEMERIS_TYPE":0,"CLASSIFICATION_TYPE":"U","NORAD_CAT_ID":56723,"ELEMENT_SET_NO":999,"REV_AT_EPOCH":11769,"BSTAR":-0.00023178792,"MEAN_MOTION_DOT":-7.4e-7,"MEAN_MOTION_DDOT":0},{"OBJECT_NAME":"ONEWEB-0703","OBJECT_ID":"2023-068Q","EPOCH":"2025-10-19T07:24:22.922496","MEAN_MOTION":13.15556037,"ECCENTRICITY":0.00013657,"INCLINATION":87.8963,"RA_OF_ASC_NODE":307.2867,"ARG_OF_PERICENTER":128.6747,"MEAN_ANOMALY":231.4506,"EPHEMERIS_TYPE":0,"CLASSIFICATION_TYPE":"U","NORAD_CAT_ID":56724,"ELEMENT_SET_NO":999,"REV_AT_EPOCH":11758,"BSTAR":-0.00027279193,"MEAN_MOTION_DOT":-9.0e-7,"MEAN_MOTION_DDOT":0},{"OBJECT_NAME":"ONEWEB-0721","OBJECT_ID":"2023-068R","EPOCH":"2025-10-19T03:55:42.192192","MEAN_MOTION":13.22448645,"ECCENTRICITY":0.00015361,"INCLINATION":86.6837,"RA_OF_ASC_NODE":162.38,"ARG_OF_PERICENTER":76.207,"MEAN_ANOMALY":283.9234,"EPHEMERIS_TYPE":0,"CLASSIFICATION_TYPE":"U","NORAD_CAT_ID":56725,"ELEMENT_SET_NO":999,"REV_AT_EPOCH":12608,"BSTAR":0.0002390182,"MEAN_MOTION_DOT":1.14e-6,"MEAN_MOTION_DDOT":0},{"OBJECT_NAME":"ONEWEB-0015","OBJECT_ID":"2024-188A","EPOCH":"2025-10-19T03:14:56.414688","MEAN_MOTION":13.11418405,"ECCENTRICITY":0.00012611,"INCLINATION":87.8828,"RA_OF_ASC_NODE":69.1067,"ARG_OF_PERICENTER":74.8116,"MEAN_ANOMALY":285.3151,"EPHEMERIS_TYPE":0,"CLASSIFICATION_TYPE":"U","NORAD_CAT_ID":61594,"ELEMENT_SET_NO":999,"REV_AT_EPOCH":5286,"BSTAR":0.0012159658,"MEAN_MOTION_DOT":4.44e-6,"MEAN_MOTION_DDOT":0},{"OBJECT_NAME":"ONEWEB-0687","OBJECT_ID":"2024-188B","EPOCH":"2025-10-19T06:50:52.014336","MEAN_MOTION":13.17650251,"ECCENTRICITY":0.00018842,"INCLINATION":87.9097,"RA_OF_ASC_NODE":53.8096,"ARG_OF_PERICENTER":80.4094,"MEAN_ANOMALY":279.7251,"EPHEMERIS_TYPE":0,"CLASSIFICATION_TYPE":"U","NORAD_CAT_ID":61595,"ELEMENT_SET_NO":999,"REV_AT_EPOCH":5417,"BSTAR":0.00016008798,"MEAN_MOTION_DOT":7.5e-7,"MEAN_MOTION_DDOT":0},{"OBJECT_NAME":"ONEWEB-0688","OBJECT_ID":"2024-188C","EPOCH":"2025-10-19T07:32:10.255776","MEAN_MOTION":13.17649401,"ECCENTRICITY":0.00011801,"INCLINATION":87.9095,"RA_OF_ASC_NODE":53.804,"ARG_OF_PERICENTER":48.0423,"MEAN_ANOMALY":312.0809,"EPHEMERIS_TYPE":0,"CLASSIFICATION_TYPE":"U","NORAD_CAT_ID":61596,"ELEMENT_SET_NO":999,"REV_AT_EPOCH":5417,"BSTAR":6.186746e-5,"MEAN_MOTION_DOT":3.7e-7,"MEAN_MOTION_DDOT":0},{"OBJECT_NAME":"ONEWEB-0689","OBJECT_ID":"2024-188D","EPOCH":"2025-10-19T02:13:53.743296","MEAN_MOTION":13.11415404,"ECCENTRICITY":0.0001836,"INCLINATION":87.8802,"RA_OF_ASC_NODE":69.0589,"ARG_OF_PERICENTER":88.9937,"MEAN_ANOMALY":271.1401,"EPHEMERIS_TYPE":0,"CLASSIFICATION_TYPE":"U","NORAD_CAT_ID":61597,"ELEMENT_SET_NO":999,"REV_AT_EPOCH":5285,"BSTAR":-0.00073646061,"MEAN_MOTION_DOT":-2.48e-6,"MEAN_MOTION_DDOT":0},{"OBJECT_NAME":"ONEWEB-0690","OBJECT_ID":"2024-188E","EPOCH":"2025-10-19T02:28:31.584576","MEAN_MOTION":13.11418233,"ECCENTRICITY":0.0001385,"INCLINATION":87.8842,"RA_OF_ASC_NODE":69.0528,"ARG_OF_PERICENTER":125.3615,"MEAN_ANOMALY":234.7643,"EPHEMERIS_TYPE":0,"CLASSIFICATION_TYPE":"U","NORAD_CAT_ID":61598,"ELEMENT_SET_NO":999,"REV_AT_EPOCH":5303,"BSTAR":-0.0015303943,"MEAN_MOTION_DOT":-5.3e-6,"MEAN_MOTION_DDOT":0},{"OBJECT_NAME":"ONEWEB-0691","OBJECT_ID":"2024-188F","EPOCH":"2025-10-19T02:21:13.027680","MEAN_MOTION":13.11416364,"ECCENTRICITY":0.00012752,"INCLINATION":87.8771,"RA_OF_ASC_NODE":68.9834,"ARG_OF_PERICENTER":84.8135,"MEAN_ANOMALY":275.3138,"EPHEMERIS_TYPE":0,"CLASSIFICATION_TYPE":"U","NORAD_CAT_ID":61599,"ELEMENT_SET_NO":999,"REV_AT_EPOCH":5288,"BSTAR":-0.0012331308,"MEAN_MOTION_DOT":-4.24e-6,"MEAN_MOTION_DDOT":0},{"OBJECT_NAME":"ONEWEB-0692","OBJECT_ID":"2024-188G","EPOCH":"2025-10-19T02:50:30.057216","MEAN_MOTION":13.11418803,"ECCENTRICITY":0.00024923,"INCLINATION":87.882,"RA_OF_ASC_NODE":69.1063,"ARG_OF_PERICENTER":104.1316,"MEAN_ANOMALY":256.009,"EPHEMERIS_TYPE":0,"CLASSIFICATION_TYPE":"U","NORAD_CAT_ID":61600,"ELEMENT_SET_NO":999,"REV_AT_EPOCH":5287,"BSTAR":-0.0013975731,"MEAN_MOTION_DOT":-4.83e-6,"MEAN_MOTION_DDOT":0},{"OBJECT_NAME":"ONEWEB-0693","OBJECT_ID":"2024-188H","EPOCH":"2025-10-19T05:59:48.623712","MEAN_MOTION":13.17648149,"ECCENTRICITY":0.0001124,"INCLINATION":87.9097,"RA_OF_ASC_NODE":53.8354,"ARG_OF_PERICENTER":126.6225,"MEAN_ANOMALY":233.501,"EPHEMERIS_TYPE":0,"CLASSIFICATION_TYPE":"U","NORAD_CAT_ID":61601,"ELEMENT_SET_NO":999,"REV_AT_EPOCH":5415,"BSTAR":9.7753697e-5,"MEAN_MOTION_DOT":5.1e-7,"MEAN_MOTION_DDOT":0},{"OBJECT_NAME":"ONEWEB-0695","OBJECT_ID":"2024-188J","EPOCH":"2025-10-18T22:36:36.170784","MEAN_MOTION":13.11415097,"ECCENTRICITY":0.00021333,"INCLINATION":87.882,"RA_OF_ASC_NODE":69.1293,"ARG_OF_PERICENTER":91.9909,"MEAN_ANOMALY":268.1463,"EPHEMERIS_TYPE":0,"CLASSIFICATION_TYPE":"U","NORAD_CAT_ID":61602,"ELEMENT_SET_NO":999,"REV_AT_EPOCH":5284,"BSTAR":-0.0011654536,"MEAN_MOTION_DOT":-4.0e-6,"MEAN_MOTION_DDOT":0},{"OBJECT_NAME":"ONEWEB-0697","OBJECT_ID":"2024-188K","EPOCH":"2025-10-19T06:42:27.970560","MEAN_MOTION":13.1141967,"ECCENTRICITY":0.00023984,"INCLINATION":87.8822,"RA_OF_ASC_NODE":69.0527,"ARG_OF_PERICENTER":104.4732,"MEAN_ANOMALY":255.6662,"EPHEMERIS_TYPE":0,"CLASSIFICATION_TYPE":"U","NORAD_CAT_ID":61603,"ELEMENT_SET_NO":999,"REV_AT_EPOCH":5287,"BSTAR":0.00027101001,"MEAN_MOTION_DOT":1.09e-6,"MEAN_MOTION_DDOT":0},{"OBJECT_NAME":"ONEWEB-0698","OBJECT_ID":"2024-188L","EPOCH":"2025-10-18T21:01:22.479168","MEAN_MOTION":13.11417496,"ECCENTRICITY":0.00023082,"INCLINATION":87.8822,"RA_OF_ASC_NODE":69.148,"ARG_OF_PERICENTER":124.7705,"MEAN_ANOMALY":235.364,"EPHEMERIS_TYPE":0,"CLASSIFICATION_TYPE":"U","NORAD_CAT_ID":61604,"ELEMENT_SET_NO":999,"REV_AT_EPOCH":5284,"BSTAR":-0.0016777239,"MEAN_MOTION_DOT":-5.82e-6,"MEAN_MOTION_DDOT":0},{"OBJECT_NAME":"ONEWEB-0699","OBJECT_ID":"2024-188M","EPOCH":"2025-10-18T22:13:10.085952","MEAN_MOTION":13.10374663,"ECCENTRICITY":0.00021899,"INCLINATION":87.8766,"RA_OF_ASC_NODE":84.3539,"ARG_OF_PERICENTER":103.9305,"MEAN_ANOMALY":256.2066,"EPHEMERIS_TYPE":0,"CLASSIFICATION_TYPE":"U","NORAD_CAT_ID":61605,"ELEMENT_SET_NO":999,"REV_AT_EPOCH":5171,"BSTAR":-0.0012603587,"MEAN_MOTION_DOT":-4.27e-6,"MEAN_MOTION_DDOT":0},{"OBJECT_NAME":"ONEWEB-0700","OBJECT_ID":"2024-188N","EPOCH":"2025-10-18T20:25:35.598144","MEAN_MOTION":13.10373959,"ECCENTRICITY":0.00023429,"INCLINATION":87.8774,"RA_OF_ASC_NODE":84.2513,"ARG_OF_PERICENTER":88.506,"MEAN_ANOMALY":271.6336,"EPHEMERIS_TYPE":0,"CLASSIFICATION_TYPE":"U","NORAD_CAT_ID":61606,"ELEMENT_SET_NO":999,"REV_AT_EPOCH":5169,"BSTAR":-0.0010237302,"MEAN_MOTION_DOT":-3.45e-6,"MEAN_MOTION_DDOT":0}]
